[{"OBJECT_NAME":"STARLINK-5724","OBJECT_ID":"2023-061BF","EPOCH":"2026-03-09T07:42:09.860544","MEAN_MOTION":15.02532142,"ECCENTRICITY":0.00014253,"INCLINATION":43.0032,"RA_OF_ASC_NODE":173.9255,"ARG_OF_PERICENTER":258.3214,"MEAN_ANOMALY":101.7468,"EPHEMERIS_TYPE":0,"CLASSIFICATION_TYPE":"U","NORAD_CAT_ID":56427,"ELEMENT_SET_NO":999,"REV_AT_EPOCH":15699,"BSTAR":-3.2782954e-5,"MEAN_MOTION_DOT":-6.46e-6,"MEAN_MOTION_DDOT":0},{"OBJECT_NAME":"COSMOS 2251 DEB","OBJECT_ID":"1993-036AXM","EPOCH":"2026-03-07T07:05:54.204864","MEAN_MOTION":15.02741186,"ECCENTRICITY":0.0082386,"INCLINATION":74.0334,"RA_OF_ASC_NODE":21.5856,"ARG_OF_PERICENTER":78.8649,"MEAN_ANOMALY":282.1788,"EPHEMERIS_TYPE":0,"CLASSIFICATION_TYPE":"U","NORAD_CAT_ID":36050,"ELEMENT_SET_NO":999,"REV_AT_EPOCH":68304,"BSTAR":0.00097016,"MEAN_MOTION_DOT":0.00013949,"MEAN_MOTION_DDOT":0}]
